{"type": "FeatureCollection", "features": [{"type": "Feature", "properties": {"norad_id": 26766, "name": "INTELSAT 10 (IS-10)", "group": "intelsat", "lat": 8.554844340650156, "lon": 160.5319521802499, "alt_km": 36146.14539048145, "timestamp": "2025-12-24T22:42:21.689591+00:00", "meta": {"OBJECT_NAME": "INTELSAT 10 (IS-10)", "OBJECT_ID": "2001-019A", "EPOCH": "2025-12-23T20:29:28.496256", "MEAN_MOTION": 0.9907274, "ECCENTRICITY": 0.00078795, "INCLINATION": 8.6541, "RA_OF_ASC_NODE": 61.0445, "ARG_OF_PERICENTER": 229.3993, "MEAN_ANOMALY": 200.4709, "EPHEMERIS_TYPE": 0, "CLASSIFICATION_TYPE": "U", "NORAD_CAT_ID": 26766, "ELEMENT_SET_NO": 999, "REV_AT_EPOCH": 4384, "BSTAR": 0, "MEAN_MOTION_DOT": -1.1e-07, "MEAN_MOTION_DDOT": 0}, "tle": {"line1": "1 26766U 01019A   25357.85380204 -.00000011  00000+0  00000+0 0  9991", "line2": "2 26766   8.6541  61.0445 0007879 229.3993 200.4709  0.99072740 43840"}}, "geometry": {"type": "Point", "coordinates": [160.5319521802499, 8.554844340650156]}}, {"type": "Feature", "properties": {"norad_id": 26900, "name": "INTELSAT 902 (IS-902)", "group": "intelsat", "lat": -4.331875113302766, "lon": 24.289656361639405, "alt_km": 35797.51186224186, "timestamp": "2025-12-24T22:42:21.689615+00:00", "meta": {"OBJECT_NAME": "INTELSAT 902 (IS-902)", "OBJECT_ID": "2001-039A", "EPOCH": "2025-12-15T13:09:02.081664", "MEAN_MOTION": 1.0027087, "ECCENTRICITY": 0.00045028, "INCLINATION": 5.6536, "RA_OF_ASC_NODE": 74.0372, "ARG_OF_PERICENTER": 189.6359, "MEAN_ANOMALY": 327.9329, "EPHEMERIS_TYPE": 0, "CLASSIFICATION_TYPE": "U", "NORAD_CAT_ID": 26900, "ELEMENT_SET_NO": 999, "REV_AT_EPOCH": 8885, "BSTAR": 0, "MEAN_MOTION_DOT": -2.65e-06, "MEAN_MOTION_DDOT": 0}, "tle": {"line1": "1 26900U 01039A   25349.54794076 -.00000265  00000+0  00000+0 0  9997", "line2": "2 26900   5.6536  74.0372 0004502 189.6359 327.9329  1.00270870 88858"}}, "geometry": {"type": "Point", "coordinates": [24.289656361639405, -4.331875113302766]}}, {"type": "Feature", "properties": {"norad_id": 27380, "name": "INTELSAT 904 (IS-904)", "group": "intelsat", "lat": -3.0791285342721513, "lon": 42.990003002823, "alt_km": 35785.64279099374, "timestamp": "2025-12-24T22:42:21.689633+00:00", "meta": {"OBJECT_NAME": "INTELSAT 904 (IS-904)", "OBJECT_ID": "2002-007A", "EPOCH": "2025-12-23T23:15:16.271712", "MEAN_MOTION": 1.00273356, "ECCENTRICITY": 0.00018804, "INCLINATION": 6.4809, "RA_OF_ASC_NODE": 71.3034, "ARG_OF_PERICENTER": 245.293, "MEAN_ANOMALY": 93.4817, "EPHEMERIS_TYPE": 0, "CLASSIFICATION_TYPE": "U", "NORAD_CAT_ID": 27380, "ELEMENT_SET_NO": 999, "REV_AT_EPOCH": 5000, "BSTAR": 0, "MEAN_MOTION_DOT": -2.07e-06, "MEAN_MOTION_DDOT": 0}, "tle": {"line1": "1 27380U 02007A   25357.96893833 -.00000207  00000+0  00000+0 0  9998", "line2": "2 27380   6.4809  71.3034 0001880 245.2930  93.4817  1.00273356 50003"}}, "geometry": {"type": "Point", "coordinates": [42.990003002823, -3.0791285342721513]}}, {"type": "Feature", "properties": {"norad_id": 27426, "name": "DIRECTV 5 (TEMPO 1)", "group": "intelsat", "lat": -4.086946351412303, "lon": -35.85316448352218, "alt_km": 35776.59164355014, "timestamp": "2025-12-24T22:42:21.689646+00:00", "meta": {"OBJECT_NAME": "DIRECTV 5 (TEMPO 1)", "OBJECT_ID": "2002-023A", "EPOCH": "2025-12-24T05:01:47.604864", "MEAN_MOTION": 1.00271646, "ECCENTRICITY": 0.00032791, "INCLINATION": 4.4296, "RA_OF_ASC_NODE": 77.5183, "ARG_OF_PERICENTER": 203.0994, "MEAN_ANOMALY": 137.6999, "EPHEMERIS_TYPE": 0, "CLASSIFICATION_TYPE": "U", "NORAD_CAT_ID": 27426, "ELEMENT_SET_NO": 999, "REV_AT_EPOCH": 8636, "BSTAR": 0, "MEAN_MOTION_DOT": -3.8e-07, "MEAN_MOTION_DDOT": 0}, "tle": {"line1": "1 27426U 02023A   25358.20957876 -.00000038  00000+0  00000+0 0  9995", "line2": "2 27426   4.4296  77.5183 0003279 203.0994 137.6999  1.00271646 86361"}}, "geometry": {"type": "Point", "coordinates": [-35.85316448352218, -4.086946351412303]}}, {"type": "Feature", "properties": {"norad_id": 27438, "name": "INTELSAT 905 (IS-905)", "group": "intelsat", "lat": -4.496826610699577, "lon": -63.048189517904994, "alt_km": 35775.0636935086, "timestamp": "2025-12-24T22:42:21.689668+00:00", "meta": {"OBJECT_NAME": "INTELSAT 905 (IS-905)", "OBJECT_ID": "2002-027A", "EPOCH": "2025-12-23T05:41:27.377952", "MEAN_MOTION": 1.00273243, "ECCENTRICITY": 0.00027491, "INCLINATION": 6.3102, "RA_OF_ASC_NODE": 71.9349, "ARG_OF_PERICENTER": 206.5226, "MEAN_ANOMALY": 121.7385, "EPHEMERIS_TYPE": 0, "CLASSIFICATION_TYPE": "U", "NORAD_CAT_ID": 27438, "ELEMENT_SET_NO": 999, "REV_AT_EPOCH": 4959, "BSTAR": 0, "MEAN_MOTION_DOT": 1.12e-06, "MEAN_MOTION_DDOT": 0}, "tle": {"line1": "1 27438U 02027A   25357.23712243  .00000112  00000+0  00000+0 0  9993", "line2": "2 27438   6.3102  71.9349 0002749 206.5226 121.7385  1.00273243 49592"}}, "geometry": {"type": "Point", "coordinates": [-63.048189517904994, -4.496826610699577]}}, {"type": "Feature", "properties": {"norad_id": 27445, "name": "GALAXY 3C (G-3C)", "group": "intelsat", "lat": -3.2462803775546387, "lon": -20.572029985580095, "alt_km": 35791.21864522946, "timestamp": "2025-12-24T22:42:21.689696+00:00", "meta": {"OBJECT_NAME": "GALAXY 3C (G-3C)", "OBJECT_ID": "2002-030A", "EPOCH": "2025-12-24T05:48:02.087712", "MEAN_MOTION": 1.00271386, "ECCENTRICITY": 0.00010927, "INCLINATION": 3.2908, "RA_OF_ASC_NODE": 80.3833, "ARG_OF_PERICENTER": 84.2679, "MEAN_ANOMALY": 280.5213, "EPHEMERIS_TYPE": 0, "CLASSIFICATION_TYPE": "U", "NORAD_CAT_ID": 27445, "ELEMENT_SET_NO": 999, "REV_AT_EPOCH": 4474, "BSTAR": 0, "MEAN_MOTION_DOT": -1.33e-06, "MEAN_MOTION_DDOT": 0}, "tle": {"line1": "1 27445U 02030A   25358.24169083 -.00000133  00000+0  00000+0 0  9999", "line2": "2 27445   3.2908  80.3833 0001092  84.2679 280.5213  1.00271386 44747"}}, "geometry": {"type": "Point", "coordinates": [-20.572029985580095, -3.2462803775546387]}}, {"type": "Feature", "properties": {"norad_id": 27513, "name": "INTELSAT 906 (IS-906)", "group": "intelsat", "lat": 4.807100346590657, "lon": 138.30497713180696, "alt_km": 35804.955765411825, "timestamp": "2025-12-24T22:42:21.689716+00:00", "meta": {"OBJECT_NAME": "INTELSAT 906 (IS-906)", "OBJECT_ID": "2002-041A", "EPOCH": "2025-12-23T18:34:28.015104", "MEAN_MOTION": 1.00273398, "ECCENTRICITY": 0.00062905, "INCLINATION": 5.3577, "RA_OF_ASC_NODE": 75.1001, "ARG_OF_PERICENTER": 202.0184, "MEAN_ANOMALY": 158.2022, "EPHEMERIS_TYPE": 0, "CLASSIFICATION_TYPE": "U", "NORAD_CAT_ID": 27513, "ELEMENT_SET_NO": 999, "REV_AT_EPOCH": 8527, "BSTAR": 0, "MEAN_MOTION_DOT": 3.1e-07, "MEAN_MOTION_DDOT": 0}, "tle": {"line1": "1 27513U 02041A   25357.77393536  .00000031  00000+0  00000+0 0  9992", "line2": "2 27513   5.3577  75.1001 0006290 202.0184 158.2022  1.00273398 85270"}}, "geometry": {"type": "Point", "coordinates": [138.30497713180696, 4.807100346590657]}}, {"type": "Feature", "properties": {"norad_id": 27954, "name": "GALAXY 13 (HORIZONS-1)", "group": "intelsat", "lat": -0.319835016923331, "lon": -75.72828675033605, "alt_km": 35776.540703956394, "timestamp": "2025-12-24T22:42:21.689730+00:00", "meta": {"OBJECT_NAME": "GALAXY 13 (HORIZONS-1)", "OBJECT_ID": "2003-044A", "EPOCH": "2025-12-24T04:18:50.176224", "MEAN_MOTION": 1.00271453, "ECCENTRICITY": 0.00023344, "INCLINATION": 0.9663, "RA_OF_ASC_NODE": 86.3197, "ARG_OF_PERICENTER": 183.7359, "MEAN_ANOMALY": 97.5809, "EPHEMERIS_TYPE": 0, "CLASSIFICATION_TYPE": "U", "NORAD_CAT_ID": 27954, "ELEMENT_SET_NO": 999, "REV_AT_EPOCH": 4481, "BSTAR": 0, "MEAN_MOTION_DOT": 1.53e-06, "MEAN_MOTION_DDOT": 0}, "tle": {"line1": "1 27954U 03044A   25358.17974741  .00000153  00000+0  00000+0 0  9998", "line2": "2 27954   0.9663  86.3197 0002334 183.7359  97.5809  1.00271453 44813"}}, "geometry": {"type": "Point", "coordinates": [-75.72828675033605, -0.319835016923331]}}, {"type": "Feature", "properties": {"norad_id": 28358, "name": "INTELSAT 10-02", "group": "intelsat", "lat": 0.019259608400971413, "lon": 73.33312832759391, "alt_km": 35790.09845971521, "timestamp": "2025-12-24T22:42:21.689743+00:00", "meta": {"OBJECT_NAME": "INTELSAT 10-02", "OBJECT_ID": "2004-022A", "EPOCH": "2025-12-24T02:38:38.492736", "MEAN_MOTION": 1.00266508, "ECCENTRICITY": 0.00012757, "INCLINATION": 0.0148, "RA_OF_ASC_NODE": 53.5319, "ARG_OF_PERICENTER": 261.4537, "MEAN_ANOMALY": 176.6028, "EPHEMERIS_TYPE": 0, "CLASSIFICATION_TYPE": "U", "NORAD_CAT_ID": 28358, "ELEMENT_SET_NO": 999, "REV_AT_EPOCH": 7880, "BSTAR": 0, "MEAN_MOTION_DOT": 9e-08, "MEAN_MOTION_DDOT": 0}, "tle": {"line1": "1 28358U 04022A   25358.11016774  .00000009  00000+0  00000+0 0  9991", "line2": "2 28358   0.0148  53.5319 0001275 261.4537 176.6028  1.00266508 78801"}}, "geometry": {"type": "Point", "coordinates": [73.33312832759391, 0.019259608400971413]}}, {"type": "Feature", "properties": {"norad_id": 28626, "name": "XM-3 (RHYTHM)", "group": "intelsat", "lat": 0.17077630178052855, "lon": 130.57904149280412, "alt_km": 36166.861155884595, "timestamp": "2025-12-24T22:42:21.689756+00:00", "meta": {"OBJECT_NAME": "XM-3 (RHYTHM)", "OBJECT_ID": "2005-008A", "EPOCH": "2025-12-24T04:49:30.196416", "MEAN_MOTION": 0.98950005, "ECCENTRICITY": 0.0002119, "INCLINATION": 0.2024, "RA_OF_ASC_NODE": 82.1628, "ARG_OF_PERICENTER": 274.8178, "MEAN_ANOMALY": 228.1838, "EPHEMERIS_TYPE": 0, "CLASSIFICATION_TYPE": "U", "NORAD_CAT_ID": 28626, "ELEMENT_SET_NO": 999, "REV_AT_EPOCH": 4086, "BSTAR": 0, "MEAN_MOTION_DOT": 9.9e-07, "MEAN_MOTION_DDOT": 0}, "tle": {"line1": "1 28626U 05008A   25358.20104394  .00000099  00000+0  00000+0 0  9999", "line2": "2 28626   0.2024  82.1628 0002119 274.8178 228.1838  0.98950005 40867"}}, "geometry": {"type": "Point", "coordinates": [130.57904149280412, 0.17077630178052855]}}]}